start=new Date('2022-01-14T00:00:00.000Z').valueOf();
sats=[{"GP_ID":"193811321","APOAPSIS":"548.705","ECCENTRICITY":"0.00021410","FILE":"3272312","BSTAR":"0.00029397000000","INCLINATION":"53.0539","REF_FRAME":"TEME","PERIOD":"95.592","MEAN_MOTION_DDOT":"0.0000000000000","EPHEMERIS_TYPE":"0","ELEMENT_SET_NO":"999","MEAN_MOTION_DOT":"0.00004099","SITE":"AFETR","CLASSIFICATION_TYPE":"U","DECAY_DATE":null,"OBJECT_NAME":"STARLINK-2243","PERIAPSIS":"545.740","TLE_LINE2":"2 48013  53.0539 266.2451 0002141  65.7695 294.3518 15.06397050 46531","OBJECT_ID":"2021-024AN","MEAN_ANOMALY":"294.3518","RCS_SIZE":"LARGE","OBJECT_TYPE":"PAYLOAD","TIME_SYSTEM":"UTC","RA_OF_ASC_NODE":"266.2451","EPOCH":"2022-01-13T21:43:35.521536","MEAN_ELEMENT_THEORY":"SGP4","CENTER_NAME":"EARTH","TLE_LINE1":"1 48013U 21024AN  22013.90527224  .00004099  00000-0  29397-3 0  9999","NORAD_CAT_ID":"48013","REV_AT_EPOCH":"4653","LAUNCH_DATE":"2021-03-24","SEMIMAJOR_AXIS":"6925.358","ARG_OF_PERICENTER":"65.7695","MEAN_MOTION":"15.06397050","COUNTRY_CODE":"US"},{"OBJECT_ID":"2021-024AP","MEAN_ANOMALY":"214.0169","RCS_SIZE":"LARGE","TIME_SYSTEM":"UTC","OBJECT_TYPE":"PAYLOAD","RA_OF_ASC_NODE":"230.0766","TLE_LINE1":"1 48014U 21024AP  22013.91667824  .00003981  00000-0  29233-3 0  9990","NORAD_CAT_ID":"48014","CENTER_NAME":"EARTH","MEAN_ELEMENT_THEORY":"SGP4","EPOCH":"2022-01-13T22:00:00.999936","REV_AT_EPOCH":"356","LAUNCH_DATE":"2021-03-24","MEAN_MOTION":"15.05572058","COUNTRY_CODE":"US","ARG_OF_PERICENTER":"66.2607","SEMIMAJOR_AXIS":"6927.887","APOAPSIS":"551.404","GP_ID":"193811572","FILE":"3272312","ECCENTRICITY":"0.00023840","BSTAR":"0.00029233000000","INCLINATION":"53.0521","REF_FRAME":"TEME","PERIOD":"95.645","MEAN_MOTION_DDOT":"0.0000000000000","EPHEMERIS_TYPE":"0","MEAN_MOTION_DOT":"0.00003981","ELEMENT_SET_NO":"999","DECAY_DATE":null,"CLASSIFICATION_TYPE":"U","SITE":"AFETR","OBJECT_NAME":"STARLINK-2283","TLE_LINE2":"2 48014  53.0521 230.0766 0002384  66.2607 214.0169 15.05572058  3568","PERIAPSIS":"548.101"},{"REV_AT_EPOCH":"4741","ARG_OF_PERICENTER":"337.4048","SEMIMAJOR_AXIS":"6638.926","COUNTRY_CODE":"US","MEAN_MOTION":"16.04929805","LAUNCH_DATE":"2021-03-24","MEAN_ANOMALY":"110.7175","OBJECT_ID":"2021-024AQ","RA_OF_ASC_NODE":"168.7565","MEAN_ELEMENT_THEORY":"SGP4","EPOCH":"2022-01-13T23:03:23.137344","NORAD_CAT_ID":"48015","TLE_LINE1":"1 48015U 21024AQ  22013.96068446  .01938623  27539-2  28709-2 0  9996","CENTER_NAME":"EARTH","RCS_SIZE":"LARGE","OBJECT_TYPE":"PAYLOAD","TIME_SYSTEM":"UTC","EPHEMERIS_TYPE":"0","MEAN_MOTION_DDOT":"0.0027539000000","PERIOD":"89.724","OBJECT_NAME":"STARLINK-2281","TLE_LINE2":"2 48015  53.0352 168.7565 0006494 337.4048 110.7175 16.04929805 47410","PERIAPSIS":"256.479","ELEMENT_SET_NO":"999","MEAN_MOTION_DOT":"0.01938623","SITE":"AFETR","CLASSIFICATION_TYPE":"U","DECAY_DATE":null,"ECCENTRICITY":"0.00064940","FILE":"3272322","APOAPSIS":"265.102","GP_ID":"193814708","REF_FRAME":"TEME","BSTAR":"0.00287090000000","INCLINATION":"53.0352"},{"INCLINATION":"53.0526","BSTAR":"0.00110220000000","REF_FRAME":"TEME","GP_ID":"193810571","APOAPSIS":"548.904","FILE":"3272312","ECCENTRICITY":"0.00023030","DECAY_DATE":null,"SITE":"AFETR","CLASSIFICATION_TYPE":"U","MEAN_MOTION_DOT":"0.00016160","ELEMENT_SET_NO":"999","TLE_LINE2":"2 48016  53.0526 216.1780 0002303  66.3758 215.7164 15.06368741  3561","PERIAPSIS":"545.714","OBJECT_NAME":"STARLINK-2284","PERIOD":"95.594","MEAN_MOTION_DDOT":"0.0000000000000","EPHEMERIS_TYPE":"0","TIME_SYSTEM":"UTC","OBJECT_TYPE":"PAYLOAD","RCS_SIZE":"LARGE","TLE_LINE1":"1 48016U 21024AR  22013.91667824  .00016160  00000-0  11022-2 0  9991","NORAD_CAT_ID":"48016","CENTER_NAME":"EARTH","EPOCH":"2022-01-13T22:00:00.999936","MEAN_ELEMENT_THEORY":"SGP4","RA_OF_ASC_NODE":"216.1780","OBJECT_ID":"2021-024AR","MEAN_ANOMALY":"215.7164","LAUNCH_DATE":"2021-03-24","MEAN_MOTION":"15.06368741","COUNTRY_CODE":"US","SEMIMAJOR_AXIS":"6925.444","ARG_OF_PERICENTER":"66.3758","REV_AT_EPOCH":"356"},{"REF_FRAME":"TEME","BSTAR":"0.00052595000000","INCLINATION":"53.0522","FILE":"3272312","ECCENTRICITY":"0.00021820","APOAPSIS":"485.587","GP_ID":"193810821","OBJECT_NAME":"STARLINK-2239","TLE_LINE2":"2 48017  53.0522 279.0508 0002182  44.3397 315.7775 15.27233296 46356","PERIAPSIS":"482.592","MEAN_MOTION_DOT":"0.00013902","ELEMENT_SET_NO":"999","DECAY_DATE":null,"SITE":"AFETR","CLASSIFICATION_TYPE":"U","EPHEMERIS_TYPE":"0","MEAN_MOTION_DDOT":"0.0000000000000","PERIOD":"94.288","RA_OF_ASC_NODE":"279.0508","NORAD_CAT_ID":"48017","TLE_LINE1":"1 48017U 21024AS  22013.92983947  .00013902  00000-0  52595-3 0  9992","CENTER_NAME":"EARTH","MEAN_ELEMENT_THEORY":"SGP4","EPOCH":"2022-01-13T22:18:58.130208","RCS_SIZE":"LARGE","OBJECT_TYPE":"PAYLOAD","TIME_SYSTEM":"UTC","MEAN_ANOMALY":"315.7775","OBJECT_ID":"2021-024AS","MEAN_MOTION":"15.27233296","COUNTRY_CODE":"US","SEMIMAJOR_AXIS":"6862.224","ARG_OF_PERICENTER":"44.3397","LAUNCH_DATE":"2021-03-24","REV_AT_EPOCH":"4635"},{"MEAN_ANOMALY":"298.1607","OBJECT_ID":"2021-024AT","EPOCH":"2022-01-13T22:06:05.766048","MEAN_ELEMENT_THEORY":"SGP4","TLE_LINE1":"1 48018U 21024AT  22013.92090007  .00001842  00000-0  14258-3 0  9993","NORAD_CAT_ID":"48018","CENTER_NAME":"EARTH","RA_OF_ASC_NODE":"286.1623","OBJECT_TYPE":"PAYLOAD","TIME_SYSTEM":"UTC","RCS_SIZE":"LARGE","REV_AT_EPOCH":"4631","SEMIMAJOR_AXIS":"6925.357","ARG_OF_PERICENTER":"61.9592","MEAN_MOTION":"15.06397255","COUNTRY_CODE":"US","LAUNCH_DATE":"2021-03-24","FILE":"3272312","ECCENTRICITY":"0.00020740","APOAPSIS":"548.658","GP_ID":"193812073","REF_FRAME":"TEME","INCLINATION":"53.0550","BSTAR":"0.00014258000000","EPHEMERIS_TYPE":"0","MEAN_MOTION_DDOT":"0.0000000000000","PERIOD":"95.592","PERIAPSIS":"545.786","TLE_LINE2":"2 48018  53.0550 286.1623 0002074  61.9592 298.1607 15.06397255 46314","OBJECT_NAME":"STARLINK-2282","CLASSIFICATION_TYPE":"U","SITE":"AFETR","DECAY_DATE":null,"ELEMENT_SET_NO":"999","MEAN_MOTION_DOT":"0.00001842"},{"SITE":"AFETR","CLASSIFICATION_TYPE":"U","DECAY_DATE":null,"ELEMENT_SET_NO":"999","MEAN_MOTION_DOT":"-0.00000242","TLE_LINE2":"2 48019  53.0557 276.3180 0002076  56.2769 303.8418 15.06391213 46385","PERIAPSIS":"545.803","OBJECT_NAME":"STARLINK-2285","MEAN_MOTION_DDOT":"0.0000000000000","PERIOD":"95.593","EPHEMERIS_TYPE":"0","INCLINATION":"53.0557","BSTAR":"0.00000264300000","REF_FRAME":"TEME","GP_ID":"193812324","APOAPSIS":"548.678","ECCENTRICITY":"0.00020760","FILE":"3272312","LAUNCH_DATE":"2021-03-24","ARG_OF_PERICENTER":"56.2769","SEMIMAJOR_AXIS":"6925.375","COUNTRY_CODE":"US","MEAN_MOTION":"15.06391213","REV_AT_EPOCH":"4638","TIME_SYSTEM":"UTC","OBJECT_TYPE":"PAYLOAD","RCS_SIZE":"LARGE","EPOCH":"2022-01-13T21:21:01.264608","MEAN_ELEMENT_THEORY":"SGP4","TLE_LINE1":"1 48019U 21024AU  22013.88959797 -.00000242  00000-0  26430-5 0  9990","CENTER_NAME":"EARTH","NORAD_CAT_ID":"48019","RA_OF_ASC_NODE":"276.3180","OBJECT_ID":"2021-024AU","MEAN_ANOMALY":"303.8418"},{"REF_FRAME":"TEME","INCLINATION":"53.0534","BSTAR":"-0.00035675000000","FILE":"3272090","ECCENTRICITY":"0.00021970","GP_ID":"193785421","APOAPSIS":"548.734","PERIAPSIS":"545.691","TLE_LINE2":"2 48020  53.0534 231.1774 0002197  68.1663  51.4923 15.06400221 46555","OBJECT_NAME":"STARLINK-2294","CLASSIFICATION_TYPE":"U","SITE":"AFETR","DECAY_DATE":null,"ELEMENT_SET_NO":"999","MEAN_MOTION_DOT":"-0.00005592","EPHEMERIS_TYPE":"0","PERIOD":"95.592","MEAN_MOTION_DDOT":"0.0000000000000","EPOCH":"2022-01-13T22:00:00.999936","MEAN_ELEMENT_THEORY":"SGP4","NORAD_CAT_ID":"48020","TLE_LINE1":"1 48020U 21024AV  22013.91667824 -.00005592  00000-0 -35675-3 0  9996","CENTER_NAME":"EARTH","RA_OF_ASC_NODE":"231.1774","TIME_SYSTEM":"UTC","OBJECT_TYPE":"PAYLOAD","RCS_SIZE":"LARGE","MEAN_ANOMALY":"51.4923","OBJECT_ID":"2021-024AV","ARG_OF_PERICENTER":"68.1663","SEMIMAJOR_AXIS":"6925.348","COUNTRY_CODE":"US","MEAN_MOTION":"15.06400221","LAUNCH_DATE":"2021-03-24","REV_AT_EPOCH":"4655"},{"REV_AT_EPOCH":"4695","COUNTRY_CODE":"US","MEAN_MOTION":"15.06387876","SEMIMAJOR_AXIS":"6925.386","ARG_OF_PERICENTER":"67.5711","LAUNCH_DATE":"2021-03-24","MEAN_ANOMALY":"292.5536","OBJECT_ID":"2021-024AW","TLE_LINE1":"1 48021U 21024AW  22013.87854637 -.00000544  00000-0 -17636-4 0  9992","CENTER_NAME":"EARTH","NORAD_CAT_ID":"48021","EPOCH":"2022-01-13T21:05:06.406368","MEAN_ELEMENT_THEORY":"SGP4","RA_OF_ASC_NODE":"236.3568","OBJECT_TYPE":"PAYLOAD","TIME_SYSTEM":"UTC","RCS_SIZE":"LARGE","EPHEMERIS_TYPE":"0","PERIOD":"95.593","MEAN_MOTION_DDOT":"0.0000000000000","TLE_LINE2":"2 48021  53.0560 236.3568 0002434  67.5711 292.5536 15.06387876 46956","PERIAPSIS":"545.565","OBJECT_NAME":"STARLINK-2301","DECAY_DATE":null,"CLASSIFICATION_TYPE":"U","SITE":"AFETR","MEAN_MOTION_DOT":"-0.00000544","ELEMENT_SET_NO":"999","FILE":"3272312","ECCENTRICITY":"0.00024340","APOAPSIS":"548.936","GP_ID":"193811322","REF_FRAME":"TEME","INCLINATION":"53.0560","BSTAR":"-0.00001763600000"},{"RA_OF_ASC_NODE":"296.3596","NORAD_CAT_ID":"48022","TLE_LINE1":"1 48022U 21024AX  22013.87943443  .00002007  00000-0  15363-3 0  9995","CENTER_NAME":"EARTH","EPOCH":"2022-01-13T21:06:23.134752","MEAN_ELEMENT_THEORY":"SGP4","RCS_SIZE":"LARGE","OBJECT_TYPE":"PAYLOAD","TIME_SYSTEM":"UTC","MEAN_ANOMALY":"299.8071","OBJECT_ID":"2021-024AX","COUNTRY_CODE":"US","MEAN_MOTION":"15.06398289","SEMIMAJOR_AXIS":"6925.354","ARG_OF_PERICENTER":"60.3123","LAUNCH_DATE":"2021-03-24","REV_AT_EPOCH":"4616","REF_FRAME":"TEME","BSTAR":"0.00015363000000","INCLINATION":"53.0552","FILE":"3272312","ECCENTRICITY":"0.00020620","APOAPSIS":"548.647","GP_ID":"193811573","OBJECT_NAME":"STARLINK-2298","TLE_LINE2":"2 48022  53.0552 296.3596 0002062  60.3123 299.8071 15.06398289 46167","PERIAPSIS":"545.791","MEAN_MOTION_DOT":"0.00002007","ELEMENT_SET_NO":"999","DECAY_DATE":null,"CLASSIFICATION_TYPE":"U","SITE":"AFETR","EPHEMERIS_TYPE":"0","MEAN_MOTION_DDOT":"0.0000000000000","PERIOD":"95.592"}];
